SL-14 R/B               
1 18749U 88001B   25336.26998847  .00000760  00000+0  85272-4 0  9998
2 18749  82.5123 286.9952 0017536 195.7124 164.3550 14.85405595 27564
COSMOS 1933             
1 18958U 88020A   25336.13336355  .00004727  00000+0  23799-3 0  9999
2 18958  82.5130 347.3590 0004838 156.0531 204.0928 15.16969783 35432
SL-3 R/B                
1 19046U 88032B   25336.25328697  .00006278  00000+0  30453-3 0  9992
2 19046  97.5064 315.0486 0025591 210.1712 149.8050 15.18571567 37313
SL-16 R/B               
1 19120U 88039B   25336.24787943  .00000022  00000+0  33293-4 0  9991
2 19120  71.0147 274.5816 0020077 133.9596 226.3190 14.19593317944553
COSMOS 1953             
1 19210U 88050A   25336.28404939  .00007527  00000+0  28434-3 0  9996
2 19210  82.5093 256.0699 0013765 103.0698 257.2078 15.26741171 22918
SL-8 R/B                
1 19257U 88053B   25336.33717028  .00000341  00000+0  11896-3 0  9993
2 19257  74.0473 291.8917 0019253 139.7889  12.2714 14.38848594962595
COSMOS 1975             
1 19573U 88093A   25336.16054399  .00010026  00000+0  38530-3 0  9999
2 19573  82.5216 215.4163 0012113 145.7799 214.4223 15.26223766  4522
SL-14 R/B               
1 19574U 88093B   25335.94090373  .00000645  00000+0  71639-4 0  9991
2 19574  82.5296 133.8012 0020863   5.7524 110.4457 14.85529861986521
SL-16 R/B               
1 19650U 88102B   25336.28689158 -.00000061  00000+0 -67260-5 0  9990
2 19650  71.0005 356.4377 0013486 169.1582 190.9835 14.16137442913107
INTERCOSMOS 24          
1 20261U 89080A   25336.25683704  .00001043  00000+0  30147-3 0  9995
2 20261  82.6044 167.7688 1188709 158.8305 206.6595 12.59409491654534
SL-14 R/B               
1 20262U 89080C   25336.26344005  .00000583  00000+0  16838-3 0  9994
2 20262  82.5938 235.7442 1230818  47.5260 322.3447 12.50399968647973
DELTA 1 R/B             
1 20323U 89089B   25336.22376839  .00000508  00000+0  13409-3 0  9995
2 20323  97.0759 194.1275 0070617  70.9338 289.9491 14.50558464881606
