CCSDS_OMM_VERS = 2.0
CREATION_DATE  = 
ORIGINATOR     = 

OBJECT_NAME    = SL-14 R/B
OBJECT_ID      = 1988-001B
CENTER_NAME    = EARTH
REF_FRAME      = TEME
TIME_SYSTEM    = UTC
MEAN_ELEMENT_THEORY = SGP/SGP4

EPOCH          = 2025-12-02T06:28:47.003808
MEAN_MOTION    = 14.85405595
ECCENTRICITY   = .00175363
INCLINATION    = 82.5123
RA_OF_ASC_NODE = 286.9952
ARG_OF_PERICENTER = 195.7124
MEAN_ANOMALY   = 164.3550

EPHEMERIS_TYPE = 0
CLASSIFICATION_TYPE = U
NORAD_CAT_ID   = 18749
ELEMENT_SET_NO = 999
REV_AT_EPOCH   = 2756
BSTAR          = .85272315E-4
MEAN_MOTION_DOT = .76E-5
MEAN_MOTION_DDOT = 0

CCSDS_OMM_VERS = 2.0
CREATION_DATE  = 
ORIGINATOR     = 

OBJECT_NAME    = COSMOS 1933
OBJECT_ID      = 1988-020A
CENTER_NAME    = EARTH
REF_FRAME      = TEME
TIME_SYSTEM    = UTC
MEAN_ELEMENT_THEORY = SGP/SGP4

EPOCH          = 2025-12-02T03:12:02.610720
MEAN_MOTION    = 15.16969783
ECCENTRICITY   = .00048385
INCLINATION    = 82.5130
RA_OF_ASC_NODE = 347.3590
ARG_OF_PERICENTER = 156.0531
MEAN_ANOMALY   = 204.0928

EPHEMERIS_TYPE = 0
CLASSIFICATION_TYPE = U
NORAD_CAT_ID   = 18958
ELEMENT_SET_NO = 999
REV_AT_EPOCH   = 3543
BSTAR          = .2379854E-3
MEAN_MOTION_DOT = .4727E-4
MEAN_MOTION_DDOT = 0

CCSDS_OMM_VERS = 2.0
CREATION_DATE  = 
ORIGINATOR     = 

OBJECT_NAME    = SL-3 R/B
OBJECT_ID      = 1988-032B
CENTER_NAME    = EARTH
REF_FRAME      = TEME
TIME_SYSTEM    = UTC
MEAN_ELEMENT_THEORY = SGP/SGP4

EPOCH          = 2025-12-02T06:04:43.994208
MEAN_MOTION    = 15.18571567
ECCENTRICITY   = .00255914
INCLINATION    = 97.5064
RA_OF_ASC_NODE = 315.0486
ARG_OF_PERICENTER = 210.1712
MEAN_ANOMALY   = 149.8050

EPHEMERIS_TYPE = 0
CLASSIFICATION_TYPE = U
NORAD_CAT_ID   = 19046
ELEMENT_SET_NO = 999
REV_AT_EPOCH   = 3731
BSTAR          = .30453484E-3
MEAN_MOTION_DOT = .6278E-4
MEAN_MOTION_DDOT = 0

CCSDS_OMM_VERS = 2.0
CREATION_DATE  = 
ORIGINATOR     = 

OBJECT_NAME    = SL-16 R/B
OBJECT_ID      = 1988-039B
CENTER_NAME    = EARTH
REF_FRAME      = TEME
TIME_SYSTEM    = UTC
MEAN_ELEMENT_THEORY = SGP/SGP4

EPOCH          = 2025-12-02T05:56:56.782752
MEAN_MOTION    = 14.19593317
ECCENTRICITY   = .00200774
INCLINATION    = 71.0147
RA_OF_ASC_NODE = 274.5816
ARG_OF_PERICENTER = 133.9596
MEAN_ANOMALY   = 226.3190

EPHEMERIS_TYPE = 0
CLASSIFICATION_TYPE = U
NORAD_CAT_ID   = 19120
ELEMENT_SET_NO = 999
REV_AT_EPOCH   = 94455
BSTAR          = .33293206E-4
MEAN_MOTION_DOT = .22E-6
MEAN_MOTION_DDOT = 0

CCSDS_OMM_VERS = 2.0
CREATION_DATE  = 
ORIGINATOR     = 

OBJECT_NAME    = COSMOS 1953
OBJECT_ID      = 1988-050A
CENTER_NAME    = EARTH
REF_FRAME      = TEME
TIME_SYSTEM    = UTC
MEAN_ELEMENT_THEORY = SGP/SGP4

EPOCH          = 2025-12-02T06:49:01.867296
MEAN_MOTION    = 15.26741171
ECCENTRICITY   = .00137658
INCLINATION    = 82.5093
RA_OF_ASC_NODE = 256.0699
ARG_OF_PERICENTER = 103.0698
MEAN_ANOMALY   = 257.2078

EPHEMERIS_TYPE = 0
CLASSIFICATION_TYPE = U
NORAD_CAT_ID   = 19210
ELEMENT_SET_NO = 999
REV_AT_EPOCH   = 2291
BSTAR          = .28434255E-3
MEAN_MOTION_DOT = .7527E-4
MEAN_MOTION_DDOT = 0

CCSDS_OMM_VERS = 2.0
CREATION_DATE  = 
ORIGINATOR     = 

OBJECT_NAME    = SL-8 R/B
OBJECT_ID      = 1988-053B
CENTER_NAME    = EARTH
REF_FRAME      = TEME
TIME_SYSTEM    = UTC
MEAN_ELEMENT_THEORY = SGP/SGP4

EPOCH          = 2025-12-02T08:05:31.512192
MEAN_MOTION    = 14.38848594
ECCENTRICITY   = .00192538
INCLINATION    = 74.0473
RA_OF_ASC_NODE = 291.8917
ARG_OF_PERICENTER = 139.7889
MEAN_ANOMALY   = 12.2714

EPHEMERIS_TYPE = 0
CLASSIFICATION_TYPE = U
NORAD_CAT_ID   = 19257
ELEMENT_SET_NO = 999
REV_AT_EPOCH   = 96259
BSTAR          = .11896323E-3
MEAN_MOTION_DOT = .341E-5
MEAN_MOTION_DDOT = 0

CCSDS_OMM_VERS = 2.0
CREATION_DATE  = 
ORIGINATOR     = 

OBJECT_NAME    = COSMOS 1975
OBJECT_ID      = 1988-093A
CENTER_NAME    = EARTH
REF_FRAME      = TEME
TIME_SYSTEM    = UTC
MEAN_ELEMENT_THEORY = SGP/SGP4

EPOCH          = 2025-12-02T03:51:11.000736
MEAN_MOTION    = 15.26223766
ECCENTRICITY   = .00121136
INCLINATION    = 82.5216
RA_OF_ASC_NODE = 215.4163
ARG_OF_PERICENTER = 145.7799
MEAN_ANOMALY   = 214.4223

EPHEMERIS_TYPE = 0
CLASSIFICATION_TYPE = U
NORAD_CAT_ID   = 19573
ELEMENT_SET_NO = 999
REV_AT_EPOCH   = 452
BSTAR          = .38529785E-3
MEAN_MOTION_DOT = .10026E-3
MEAN_MOTION_DDOT = 0

CCSDS_OMM_VERS = 2.0
CREATION_DATE  = 
ORIGINATOR     = 

OBJECT_NAME    = SL-14 R/B
OBJECT_ID      = 1988-093B
CENTER_NAME    = EARTH
REF_FRAME      = TEME
TIME_SYSTEM    = UTC
MEAN_ELEMENT_THEORY = SGP/SGP4

EPOCH          = 2025-12-01T22:34:54.082272
MEAN_MOTION    = 14.85529861
ECCENTRICITY   = .00208638
INCLINATION    = 82.5296
RA_OF_ASC_NODE = 133.8012
ARG_OF_PERICENTER = 5.7524
MEAN_ANOMALY   = 110.4457

EPHEMERIS_TYPE = 0
CLASSIFICATION_TYPE = U
NORAD_CAT_ID   = 19574
ELEMENT_SET_NO = 999
REV_AT_EPOCH   = 98652
BSTAR          = .71639473E-4
MEAN_MOTION_DOT = .645E-5
MEAN_MOTION_DDOT = 0

CCSDS_OMM_VERS = 2.0
CREATION_DATE  = 
ORIGINATOR     = 

OBJECT_NAME    = SL-16 R/B
OBJECT_ID      = 1988-102B
CENTER_NAME    = EARTH
REF_FRAME      = TEME
TIME_SYSTEM    = UTC
MEAN_ELEMENT_THEORY = SGP/SGP4

EPOCH          = 2025-12-02T06:53:07.432512
MEAN_MOTION    = 14.16137442
ECCENTRICITY   = .00134863
INCLINATION    = 71.0005
RA_OF_ASC_NODE = 356.4377
ARG_OF_PERICENTER = 169.1582
MEAN_ANOMALY   = 190.9835

EPHEMERIS_TYPE = 0
CLASSIFICATION_TYPE = U
NORAD_CAT_ID   = 19650
ELEMENT_SET_NO = 999
REV_AT_EPOCH   = 91310
BSTAR          = -.6725995E-5
MEAN_MOTION_DOT = -.61E-6
MEAN_MOTION_DDOT = 0

CCSDS_OMM_VERS = 2.0
CREATION_DATE  = 
ORIGINATOR     = 

OBJECT_NAME    = INTERCOSMOS 24
OBJECT_ID      = 1989-080A
CENTER_NAME    = EARTH
REF_FRAME      = TEME
TIME_SYSTEM    = UTC
MEAN_ELEMENT_THEORY = SGP/SGP4

EPOCH          = 2025-12-02T06:09:50.720256
MEAN_MOTION    = 12.59409491
ECCENTRICITY   = .11887095
INCLINATION    = 82.6044
RA_OF_ASC_NODE = 167.7688
ARG_OF_PERICENTER = 158.8305
MEAN_ANOMALY   = 206.6595

EPHEMERIS_TYPE = 0
CLASSIFICATION_TYPE = U
NORAD_CAT_ID   = 20261
ELEMENT_SET_NO = 999
REV_AT_EPOCH   = 65453
BSTAR          = .30146795E-3
MEAN_MOTION_DOT = .1043E-4
MEAN_MOTION_DDOT = 0

CCSDS_OMM_VERS = 2.0
CREATION_DATE  = 
ORIGINATOR     = 

OBJECT_NAME    = SL-14 R/B
OBJECT_ID      = 1989-080C
CENTER_NAME    = EARTH
REF_FRAME      = TEME
TIME_SYSTEM    = UTC
MEAN_ELEMENT_THEORY = SGP/SGP4

EPOCH          = 2025-12-02T06:19:21.220320
MEAN_MOTION    = 12.50399968
ECCENTRICITY   = .12308185
INCLINATION    = 82.5938
RA_OF_ASC_NODE = 235.7442
ARG_OF_PERICENTER = 47.5260
MEAN_ANOMALY   = 322.3447

EPHEMERIS_TYPE = 0
CLASSIFICATION_TYPE = U
NORAD_CAT_ID   = 20262
ELEMENT_SET_NO = 999
REV_AT_EPOCH   = 64797
BSTAR          = .16837858E-3
MEAN_MOTION_DOT = .583E-5
MEAN_MOTION_DDOT = 0

CCSDS_OMM_VERS = 2.0
CREATION_DATE  = 
ORIGINATOR     = 

OBJECT_NAME    = DELTA 1 R/B
OBJECT_ID      = 1989-089B
CENTER_NAME    = EARTH
REF_FRAME      = TEME
TIME_SYSTEM    = UTC
MEAN_ELEMENT_THEORY = SGP/SGP4

EPOCH          = 2025-12-02T05:22:13.588896
MEAN_MOTION    = 14.50558464
ECCENTRICITY   = .00706171
INCLINATION    = 97.0759
RA_OF_ASC_NODE = 194.1275
ARG_OF_PERICENTER = 70.9338
MEAN_ANOMALY   = 289.9491

EPHEMERIS_TYPE = 0
CLASSIFICATION_TYPE = U
NORAD_CAT_ID   = 20323
ELEMENT_SET_NO = 999
REV_AT_EPOCH   = 88160
BSTAR          = .13409369E-3
MEAN_MOTION_DOT = .508E-5
MEAN_MOTION_DDOT = 0

